{"fetched_at":"2026-03-29T16:36:15Z","count":15609,"tles":[{"name":"STARLINK-30164","line1":"1 57500U 23113F   26087.83476641  .00011218  00000+0  42705-3 0  9992","line2":"2 57500  43.0012 267.9028 0001894 252.7744 107.2900 15.26754135146601","category":"Starlink"}]}