{
  "norad_id": 57500,
  "name": "STARLINK-30164",
  "history": [
    {
      "epoch": "2026-03-28T20:02:03.817824Z",
      "apogee_km": 486.8232621264897,
      "perigee_km": 484.2230331161645,
      "latitude_deg": -3.928871205942225e-06,
      "longitude_deg": 141.13736899078435,
      "height_km": 485.6853474470836,
      "semi_major_axis_km": 6863.660147621326,
      "eccentricity": 0.00018942,
      "inclination_deg": 43.0012,
      "raan_deg": 267.9028,
      "arg_perigee_deg": 252.7744,
      "mean_anomaly_deg": 107.29,
      "mean_motion_rev_day": 15.26754135
    }
  ]
}